start=new Date('2022-06-01T00:00:00.000Z').valueOf();
sats=[{"INCLINATION":"53.0540","REF_FRAME":"TEME","CENTER_NAME":"EARTH","ELEMENT_SET_NO":"999","MEAN_MOTION_DDOT":"0.0000000000000","SEMIMAJOR_AXIS":"6925.385","RA_OF_ASC_NODE":"338.2604","APOAPSIS":"548.544","TLE_LINE2":"2 47888  53.0540 338.2604 0001869  47.8623 312.2525 15.06388152 68007","ARG_OF_PERICENTER":"47.8623","FILE":"3474033","PERIAPSIS":"545.956","ECCENTRICITY":"0.00018690","BSTAR":"0.00005703000000","SITE":"AFETR","NORAD_CAT_ID":"47888","RCS_SIZE":"LARGE","EPOCH":"2022-05-31T13:36:12.763296","PERIOD":"95.593","TIME_SYSTEM":"UTC","COUNTRY_CODE":"US","MEAN_MOTION_DOT":"0.00000568","TLE_LINE1":"1 47888U 21021AE  22151.56681439  .00000568  00000-0  57030-4 0  9992","LAUNCH_DATE":"2021-03-14","CLASSIFICATION_TYPE":"U","GP_ID":"205005755","EPHEMERIS_TYPE":"0","OBJECT_ID":"2021-021AE","OBJECT_NAME":"STARLINK-2348","OBJECT_TYPE":"PAYLOAD","MEAN_MOTION":"15.06388152","DECAY_DATE":null,"MEAN_ELEMENT_THEORY":"SGP4","REV_AT_EPOCH":"6800","MEAN_ANOMALY":"312.2525"},{"REV_AT_EPOCH":"6843","MEAN_ANOMALY":"307.4541","DECAY_DATE":null,"MEAN_ELEMENT_THEORY":"SGP4","MEAN_MOTION":"15.06398668","OBJECT_NAME":"STARLINK-2349","OBJECT_TYPE":"PAYLOAD","OBJECT_ID":"2021-021AF","EPHEMERIS_TYPE":"0","GP_ID":"205029579","CLASSIFICATION_TYPE":"U","TLE_LINE1":"1 47889U 21021AF  22150.91439390 -.00000203  00000-0  52715-5 0  9991","LAUNCH_DATE":"2021-03-14","MEAN_MOTION_DOT":"-0.00000203","COUNTRY_CODE":"US","TIME_SYSTEM":"UTC","RCS_SIZE":"LARGE","EPOCH":"2022-05-30T21:56:43.632960","PERIOD":"95.592","NORAD_CAT_ID":"47889","SITE":"AFETR","BSTAR":"0.00000527150000","ECCENTRICITY":"0.00017560","PERIAPSIS":"546.002","FILE":"3474118","TLE_LINE2":"2 47889  53.0555 341.1871 0001756  52.6608 307.4541 15.06398668 68439","ARG_OF_PERICENTER":"52.6608","RA_OF_ASC_NODE":"341.1871","APOAPSIS":"548.434","SEMIMAJOR_AXIS":"6925.353","MEAN_MOTION_DDOT":"0.0000000000000","ELEMENT_SET_NO":"999","CENTER_NAME":"EARTH","REF_FRAME":"TEME","INCLINATION":"53.0555"},{"MEAN_MOTION_DOT":"0.00011534","COUNTRY_CODE":"US","TIME_SYSTEM":"UTC","GP_ID":"205033249","CLASSIFICATION_TYPE":"U","TLE_LINE1":"1 47890U 21021AG  22151.76849927  .00011534  00000-0  27392-3 0  9997","LAUNCH_DATE":"2021-03-14","OBJECT_NAME":"STARLINK-2350","OBJECT_TYPE":"PAYLOAD","OBJECT_ID":"2021-021AG","EPHEMERIS_TYPE":"0","REV_AT_EPOCH":"6865","MEAN_ANOMALY":"318.7834","DECAY_DATE":null,"MEAN_ELEMENT_THEORY":"SGP4","MEAN_MOTION":"15.42176748","ELEMENT_SET_NO":"999","CENTER_NAME":"EARTH","REF_FRAME":"TEME","INCLINATION":"53.0544","TLE_LINE2":"2 47890  53.0544 293.4670 0002306  41.3345 318.7834 15.42176748 68657","ARG_OF_PERICENTER":"41.3345","RA_OF_ASC_NODE":"293.4670","APOAPSIS":"441.260","SEMIMAJOR_AXIS":"6817.823","MEAN_MOTION_DDOT":"0.0000000000000","BSTAR":"0.00027392000000","ECCENTRICITY":"0.00023060","PERIAPSIS":"438.116","FILE":"3474184","PERIOD":"93.375","RCS_SIZE":"LARGE","EPOCH":"2022-05-31T18:26:38.336928","NORAD_CAT_ID":"47890","SITE":"AFETR"},{"LAUNCH_DATE":"2021-03-14","TLE_LINE1":"1 47891U 21021AH  22151.25258692  .00000137  00000-0  28076-4 0  9993","GP_ID":"204998234","CLASSIFICATION_TYPE":"U","MEAN_MOTION_DOT":"0.00000137","COUNTRY_CODE":"US","TIME_SYSTEM":"UTC","DECAY_DATE":null,"MEAN_ELEMENT_THEORY":"SGP4","MEAN_MOTION":"15.06393102","MEAN_ANOMALY":"293.9475","REV_AT_EPOCH":"6781","OBJECT_ID":"2021-021AH","EPHEMERIS_TYPE":"0","OBJECT_NAME":"STARLINK-2351","OBJECT_TYPE":"PAYLOAD","SEMIMAJOR_AXIS":"6925.370","MEAN_MOTION_DDOT":"0.0000000000000","TLE_LINE2":"2 47891  53.0558 349.6686 0001579  66.1679 293.9475 15.06393102 67817","ARG_OF_PERICENTER":"66.1679","RA_OF_ASC_NODE":"349.6686","APOAPSIS":"548.328","REF_FRAME":"TEME","INCLINATION":"53.0558","ELEMENT_SET_NO":"999","CENTER_NAME":"EARTH","NORAD_CAT_ID":"47891","SITE":"AFETR","RCS_SIZE":"LARGE","PERIOD":"95.593","EPOCH":"2022-05-31T06:03:43.509888","PERIAPSIS":"546.141","FILE":"3473727","BSTAR":"0.00002807600000","ECCENTRICITY":"0.00015790"},{"RCS_SIZE":"LARGE","PERIOD":"94.931","EPOCH":"2022-05-30T23:28:17.058144","NORAD_CAT_ID":"47892","SITE":"AFETR","BSTAR":"-0.00003720600000","ECCENTRICITY":"0.00018590","PERIAPSIS":"513.947","FILE":"3474118","ARG_OF_PERICENTER":"55.0745","TLE_LINE2":"2 47892  53.0562 343.6354 0001859  55.0745 305.0423 15.16896771 68350","APOAPSIS":"516.510","RA_OF_ASC_NODE":"343.6354","MEAN_MOTION_DDOT":"0.0000000000000","SEMIMAJOR_AXIS":"6893.363","ELEMENT_SET_NO":"999","CENTER_NAME":"EARTH","REF_FRAME":"TEME","INCLINATION":"53.0562","MEAN_ANOMALY":"305.0423","REV_AT_EPOCH":"6835","MEAN_ELEMENT_THEORY":"SGP4","DECAY_DATE":null,"MEAN_MOTION":"15.16896771","OBJECT_NAME":"STARLINK-2352","OBJECT_TYPE":"PAYLOAD","OBJECT_ID":"2021-021AJ","EPHEMERIS_TYPE":"0","GP_ID":"205028333","CLASSIFICATION_TYPE":"U","LAUNCH_DATE":"2021-03-14","TLE_LINE1":"1 47892U 21021AJ  22150.97797521 -.00001054  00000-0 -37206-4 0  9997","MEAN_MOTION_DOT":"-0.00001054","TIME_SYSTEM":"UTC","COUNTRY_CODE":"US"},{"OBJECT_NAME":"STARLINK-2354","OBJECT_TYPE":"PAYLOAD","OBJECT_ID":"2021-021AL","EPHEMERIS_TYPE":"0","REV_AT_EPOCH":"6788","MEAN_ANOMALY":"305.8524","MEAN_ELEMENT_THEORY":"SGP4","DECAY_DATE":null,"MEAN_MOTION":"15.06395853","MEAN_MOTION_DOT":"-0.00002292","TIME_SYSTEM":"UTC","COUNTRY_CODE":"US","GP_ID":"204945264","CLASSIFICATION_TYPE":"U","LAUNCH_DATE":"2021-03-14","TLE_LINE1":"1 47894U 21021AL  22150.81118678 -.00002292  00000-0 -13503-3 0  9990","BSTAR":"-0.00013503000000","ECCENTRICITY":"0.00016220","PERIAPSIS":"546.103","FILE":"3472503","PERIOD":"95.592","RCS_SIZE":"LARGE","EPOCH":"2022-05-30T19:28:06.537792","NORAD_CAT_ID":"47894","SITE":"AFETR","ELEMENT_SET_NO":"999","CENTER_NAME":"EARTH","REF_FRAME":"TEME","INCLINATION":"53.0571","TLE_LINE2":"2 47894  53.0571 341.6553 0001622  54.2616 305.8524 15.06395853 67888","ARG_OF_PERICENTER":"54.2616","APOAPSIS":"548.350","RA_OF_ASC_NODE":"341.6553","MEAN_MOTION_DDOT":"0.0000000000000","SEMIMAJOR_AXIS":"6925.361"},{"BSTAR":"0.00000051049000","ECCENTRICITY":"0.00016180","PERIAPSIS":"546.132","FILE":"3474185","RCS_SIZE":"LARGE","PERIOD":"95.593","EPOCH":"2022-05-31T19:37:08.314176","NORAD_CAT_ID":"47895","SITE":"AFETR","ELEMENT_SET_NO":"999","CENTER_NAME":"EARTH","REF_FRAME":"TEME","INCLINATION":"53.0545","TLE_LINE2":"2 47895  53.0545 337.1411 0001618  69.3632 290.7530 15.06387321 68031","ARG_OF_PERICENTER":"69.3632","RA_OF_ASC_NODE":"337.1411","APOAPSIS":"548.373","MEAN_MOTION_DDOT":"0.0000000000000","SEMIMAJOR_AXIS":"6925.387","OBJECT_TYPE":"PAYLOAD","OBJECT_NAME":"STARLINK-2355","OBJECT_ID":"2021-021AM","EPHEMERIS_TYPE":"0","REV_AT_EPOCH":"6803","MEAN_ANOMALY":"290.7530","DECAY_DATE":null,"MEAN_ELEMENT_THEORY":"SGP4","MEAN_MOTION":"15.06387321","MEAN_MOTION_DOT":"-0.00000274","COUNTRY_CODE":"US","TIME_SYSTEM":"UTC","GP_ID":"205032905","CLASSIFICATION_TYPE":"U","LAUNCH_DATE":"2021-03-14","TLE_LINE1":"1 47895U 21021AM  22151.81745734 -.00000274  00000-0  51049-6 0  9998"},{"LAUNCH_DATE":"2021-03-14","TLE_LINE1":"1 47896U 21021AN  22151.81054139  .00000280  00000-0  37695-4 0  9996","CLASSIFICATION_TYPE":"U","GP_ID":"205035767","TIME_SYSTEM":"UTC","COUNTRY_CODE":"US","MEAN_MOTION_DOT":"0.00000280","MEAN_MOTION":"15.06384339","MEAN_ELEMENT_THEORY":"SGP4","DECAY_DATE":null,"REV_AT_EPOCH":"6782","MEAN_ANOMALY":"297.3928","EPHEMERIS_TYPE":"0","OBJECT_ID":"2021-021AN","OBJECT_TYPE":"PAYLOAD","OBJECT_NAME":"STARLINK-2356","MEAN_MOTION_DDOT":"0.0000000000000","SEMIMAJOR_AXIS":"6925.397","APOAPSIS":"548.390","RA_OF_ASC_NODE":"352.1713","ARG_OF_PERICENTER":"62.7227","TLE_LINE2":"2 47896  53.0550 352.1713 0001629  62.7227 297.3928 15.06384339 67825","INCLINATION":"53.0550","REF_FRAME":"TEME","CENTER_NAME":"EARTH","ELEMENT_SET_NO":"999","SITE":"AFETR","NORAD_CAT_ID":"47896","RCS_SIZE":"LARGE","PERIOD":"95.593","EPOCH":"2022-05-31T19:27:10.776096","FILE":"3474326","PERIAPSIS":"546.133","ECCENTRICITY":"0.00016290","BSTAR":"0.00003769500000"},{"FILE":"3474185","PERIAPSIS":"545.989","ECCENTRICITY":"0.00018330","BSTAR":"0.00013543000000","SITE":"AFETR","NORAD_CAT_ID":"47897","PERIOD":"95.593","RCS_SIZE":"LARGE","EPOCH":"2022-05-31T19:35:47.146560","INCLINATION":"53.0550","REF_FRAME":"TEME","CENTER_NAME":"EARTH","ELEMENT_SET_NO":"999","MEAN_MOTION_DDOT":"0.0000000000000","SEMIMAJOR_AXIS":"6925.394","APOAPSIS":"548.528","RA_OF_ASC_NODE":"337.1193","TLE_LINE2":"2 47897  53.0550 337.1193 0001833  65.9945 294.1235 15.06385293 68030","ARG_OF_PERICENTER":"65.9945","EPHEMERIS_TYPE":"0","OBJECT_ID":"2021-021AP","OBJECT_NAME":"STARLINK-2357","OBJECT_TYPE":"PAYLOAD","MEAN_MOTION":"15.06385293","MEAN_ELEMENT_THEORY":"SGP4","DECAY_DATE":null,"MEAN_ANOMALY":"294.1235","REV_AT_EPOCH":"6803","COUNTRY_CODE":"US","TIME_SYSTEM":"UTC","MEAN_MOTION_DOT":"0.00001735","LAUNCH_DATE":"2021-03-14","TLE_LINE1":"1 47897U 21021AP  22151.81651790  .00001735  00000-0  13543-3 0  9994","CLASSIFICATION_TYPE":"U","GP_ID":"205032902"},{"EPHEMERIS_TYPE":"0","OBJECT_ID":"2021-021AQ","OBJECT_NAME":"STARLINK-2358","OBJECT_TYPE":"PAYLOAD","MEAN_MOTION":"15.06388879","DECAY_DATE":null,"MEAN_ELEMENT_THEORY":"SGP4","REV_AT_EPOCH":"6803","MEAN_ANOMALY":"287.1165","TIME_SYSTEM":"UTC","COUNTRY_CODE":"US","MEAN_MOTION_DOT":"0.00001131","LAUNCH_DATE":"2021-03-14","TLE_LINE1":"1 47898U 21021AQ  22151.81009014  .00001131  00000-0  94815-4 0  9993","CLASSIFICATION_TYPE":"U","GP_ID":"205032919","FILE":"3474186","PERIAPSIS":"546.169","ECCENTRICITY":"0.00015570","BSTAR":"0.00009481500000","SITE":"AFETR","NORAD_CAT_ID":"47898","PERIOD":"95.593","RCS_SIZE":"LARGE","EPOCH":"2022-05-31T19:26:31.788096","INCLINATION":"53.0552","REF_FRAME":"TEME","CENTER_NAME":"EARTH","ELEMENT_SET_NO":"999","SEMIMAJOR_AXIS":"6925.383","MEAN_MOTION_DDOT":"0.0000000000000","RA_OF_ASC_NODE":"337.1749","APOAPSIS":"548.326","ARG_OF_PERICENTER":"72.9995","TLE_LINE2":"2 47898  53.0552 337.1749 0001557  72.9995 287.1165 15.06388879 68033"}];
